[
    {
        "Altitude(m)": 570588.017619742,
        "Argument of Periapsis(deg)": 0.013245982221427002,
        "Eccentricity": 0.0,
        "Inclination(deg)": 53.0,
        "Latitude(deg)": -49.93590442160669,
        "Longitude(deg)": -43.56270816319943,
        "Mean Anomaly(deg)": -107.08951426484477,
        "RAAN(deg)": 174.98028673705602,
        "Satellite Name": "Starlink Shell 1 784",
        "Satellite Number": 784,
        "Semi-Major Axis(m)": 6931778.249405717,
        "Time(s)": 380
    },
    {
        "Altitude(m)": 570676.6325786619,
        "Argument of Periapsis(deg)": 0.013594560700938237,
        "Eccentricity": 0.0,
        "Inclination(deg)": 53.0,
        "Latitude(deg)": -50.15896378960739,
        "Longitude(deg)": -42.69745265384109,
        "Mean Anomaly(deg)": -106.46268306128815,
        "RAAN(deg)": 174.97976796697856,
        "Satellite Name": "Starlink Shell 1 784",
        "Satellite Number": 784,
        "Semi-Major Axis(m)": 6931778.249405717,
        "Time(s)": 390
    },
    {
        "Altitude(m)": 570762.2324075628,
        "Argument of Periapsis(deg)": 0.013943139180449475,
        "Eccentricity": 0.0,
        "Inclination(deg)": 53.0,
        "Latitude(deg)": -50.37487472556929,
        "Longitude(deg)": -41.82387481806501,
        "Mean Anomaly(deg)": -105.83585185773136,
        "RAAN(deg)": 174.97924919690107,
        "Satellite Name": "Starlink Shell 1 784",
        "Satellite Number": 784,
        "Semi-Major Axis(m)": 6931778.249405717,
        "Time(s)": 400
    },
    {
        "Altitude(m)": 570844.7830453076,
        "Argument of Periapsis(deg)": 0.014291717659960712,
        "Eccentricity": 0.0,
        "Inclination(deg)": 53.0,
        "Latitude(deg)": -50.583518364023014,
        "Longitude(deg)": -40.942111820213135,
        "Mean Anomaly(deg)": -105.20902065417471,
        "RAAN(deg)": 174.97873042682363,
        "Satellite Name": "Starlink Shell 1 784",
        "Satellite Number": 784,
        "Semi-Major Axis(m)": 6931778.249405717,
        "Time(s)": 410
    },
    {
        "Altitude(m)": 570924.2516331279,
        "Argument of Periapsis(deg)": 0.014640296139471948,
        "Eccentricity": 0.0,
        "Inclination(deg)": 53.0,
        "Latitude(deg)": -50.78477737851854,
        "Longitude(deg)": -40.052316877386396,
        "Mean Anomaly(deg)": -104.5821894506179,
        "RAAN(deg)": 174.97821165674614,
        "Satellite Name": "Starlink Shell 1 784",
        "Satellite Number": 784,
        "Semi-Major Axis(m)": 6931778.249405717,
        "Time(s)": 420
    },
    {
        "Altitude(m)": 571000.6065289227,
        "Argument of Periapsis(deg)": 0.014988874618983185,
        "Eccentricity": 0.0,
        "Inclination(deg)": 53.0,
        "Latitude(deg)": -50.978536240915304,
        "Longitude(deg)": -39.154659006376846,
        "Mean Anomaly(deg)": -103.95535824706123,
        "RAAN(deg)": 174.97769288666868,
        "Satellite Name": "Starlink Shell 1 784",
        "Satellite Number": 784,
        "Semi-Major Axis(m)": 6931778.249405717,
        "Time(s)": 430
    },
    {
        "Altitude(m)": 571073.8173209856,
        "Argument of Periapsis(deg)": 0.015337453098494424,
        "Eccentricity": 0.0,
        "Inclination(deg)": 53.0,
        "Latitude(deg)": -51.164681487322966,
        "Longitude(deg)": -38.24932271456691,
        "Mean Anomaly(deg)": -103.32852704350452,
        "RAAN(deg)": 174.9771741165912,
        "Satellite Name": "Starlink Shell 1 784",
        "Satellite Number": 784,
        "Semi-Major Axis(m)": 6931778.249405717,
        "Time(s)": 440
    },
    {
        "Altitude(m)": 571143.8548412398,
        "Argument of Periapsis(deg)": 0.01568603157800566,
        "Eccentricity": 0.0,
        "Inclination(deg)": 53.0,
        "Latitude(deg)": -51.343101989659075,
        "Longitude(deg)": -37.336509142814585,
        "Mean Anomaly(deg)": -102.70169583994777,
        "RAAN(deg)": 174.97665534651372,
        "Satellite Name": "Starlink Shell 1 784",
        "Satellite Number": 784,
        "Semi-Major Axis(m)": 6931778.249405717,
        "Time(s)": 450
    },
    {
        "Altitude(m)": 571210.6911778923,
        "Argument of Periapsis(deg)": 0.0160346100575169,
        "Eccentricity": 0.0,
        "Inclination(deg)": 53.0,
        "Latitude(deg)": -51.513689231672195,
        "Longitude(deg)": -36.416435629928465,
        "Mean Anomaly(deg)": -102.07486463639111,
        "RAAN(deg)": 174.97613657643623,
        "Satellite Name": "Starlink Shell 1 784",
        "Satellite Number": 784,
        "Semi-Major Axis(m)": 6931778.249405717,
        "Time(s)": 460
    },
    {
        "Altitude(m)": 571274.2996875349,
        "Argument of Periapsis(deg)": 0.016383188537028134,
        "Eccentricity": 0.0,
        "Inclination(deg)": 53.0,
        "Latitude(deg)": -51.676337588172906,
        "Longitude(deg)": -35.489335207262585,
        "Mean Anomaly(deg)": -101.44803343283436,
        "RAAN(deg)": 174.9756178063588,
        "Satellite Name": "Starlink Shell 1 784",
        "Satellite Number": 784,
        "Semi-Major Axis(m)": 6931778.249405717,
        "Time(s)": 470
    },
    {
        "Altitude(m)": 571334.6550067407,
        "Argument of Periapsis(deg)": 0.01673176701653937,
        "Eccentricity": 0.0,
        "Inclination(deg)": 53.0,
        "Latitude(deg)": -51.830944606112006,
        "Longitude(deg)": -34.55545753233911,
        "Mean Anomaly(deg)": -100.82120222927765,
        "RAAN(deg)": 174.9750990362813,
        "Satellite Name": "Starlink Shell 1 784",
        "Satellite Number": 784,
        "Semi-Major Axis(m)": 6931778.249405717,
        "Time(s)": 480
    },
    {
        "Altitude(m)": 571391.7330630247,
        "Argument of Periapsis(deg)": 0.017080345496050607,
        "Eccentricity": 0.0,
        "Inclination(deg)": 53.0,
        "Latitude(deg)": -51.97741128604116,
        "Longitude(deg)": -33.61506823222902,
        "Mean Anomaly(deg)": -100.19437102572098,
        "RAAN(deg)": 174.97458026620384,
        "Satellite Name": "Starlink Shell 1 784",
        "Satellite Number": 784,
        "Semi-Major Axis(m)": 6931778.249405717,
        "Time(s)": 490
    },
    {
        "Altitude(m)": 571445.5110853122,
        "Argument of Periapsis(deg)": 0.017428923975561842,
        "Eccentricity": 0.0,
        "Inclination(deg)": 53.0,
        "Latitude(deg)": -52.11564236241024,
        "Longitude(deg)": -32.66844816658832,
        "Mean Anomaly(deg)": -99.56753982216418,
        "RAAN(deg)": 174.97406149612635,
        "Satellite Name": "Starlink Shell 1 784",
        "Satellite Number": 784,
        "Semi-Major Axis(m)": 6931778.249405717,
        "Time(s)": 500
    },
    {
        "Altitude(m)": 571495.9676138029,
        "Argument of Periapsis(deg)": 0.01777750245507308,
        "Eccentricity": 0.0,
        "Inclination(deg)": 53.0,
        "Latitude(deg)": -52.24554658107979,
        "Longitude(deg)": -31.71589412085551,
        "Mean Anomaly(deg)": -98.94070861860753,
        "RAAN(deg)": 174.9735427260489,
        "Satellite Name": "Starlink Shell 1 784",
        "Satellite Number": 784,
        "Semi-Major Axis(m)": 6931778.249405717,
        "Time(s)": 510
    },
    {
        "Altitude(m)": 571543.0825092603,
        "Argument of Periapsis(deg)": 0.018126080934584315,
        "Eccentricity": 0.0,
        "Inclination(deg)": 53.0,
        "Latitude(deg)": -52.36703697236869,
        "Longitude(deg)": -30.757717902081897,
        "Mean Anomaly(deg)": -98.3138774150508,
        "RAAN(deg)": 174.9730239559714,
        "Satellite Name": "Starlink Shell 1 784",
        "Satellite Number": 784,
        "Semi-Major Axis(m)": 6931778.249405717,
        "Time(s)": 520
    },
    {
        "Altitude(m)": 571586.836961744,
        "Argument of Periapsis(deg)": 0.018474659414095554,
        "Eccentricity": 0.0,
        "Inclination(deg)": 53.0,
        "Latitude(deg)": -52.48003111784279,
        "Longitude(deg)": -29.794245349868884,
        "Mean Anomaly(deg)": -97.68704621149409,
        "RAAN(deg)": 174.97250518589397,
        "Satellite Name": "Starlink Shell 1 784",
        "Satellite Number": 784,
        "Semi-Major Axis(m)": 6931778.249405717,
        "Time(s)": 530
    },
    {
        "Altitude(m)": 571627.2134987616,
        "Argument of Periapsis(deg)": 0.018823237893606792,
        "Eccentricity": 0.0,
        "Inclination(deg)": 53.0,
        "Latitude(deg)": -52.58445140924922,
        "Longitude(deg)": -28.825816773769976,
        "Mean Anomaly(deg)": -97.0602150079374,
        "RAAN(deg)": 174.97198641581647,
        "Satellite Name": "Starlink Shell 1 784",
        "Satellite Number": 784,
        "Semi-Major Axis(m)": 6931778.249405717,
        "Time(s)": 540
    },
    {
        "Altitude(m)": 571664.1959928357,
        "Argument of Periapsis(deg)": 0.019171816373118027,
        "Eccentricity": 0.0,
        "Inclination(deg)": 53.0,
        "Latitude(deg)": -52.68022529758787,
        "Longitude(deg)": -27.852785794030954,
        "Mean Anomaly(deg)": -96.43338380438061,
        "RAAN(deg)": 174.971467645739,
        "Satellite Name": "Starlink Shell 1 784",
        "Satellite Number": 784,
        "Semi-Major Axis(m)": 6931778.249405717,
        "Time(s)": 550
    },
    {
        "Altitude(m)": 571697.7696684875,
        "Argument of Periapsis(deg)": 0.019520394852629266,
        "Eccentricity": 0.0,
        "Inclination(deg)": 53.0,
        "Latitude(deg)": -52.76728553073873,
        "Longitude(deg)": -26.875518098669634,
        "Mean Anomaly(deg)": -95.8065526008239,
        "RAAN(deg)": 174.97094887566152,
        "Satellite Name": "Starlink Shell 1 784",
        "Satellite Number": 784,
        "Semi-Major Axis(m)": 6931778.249405717,
        "Time(s)": 560
    }
]